,Unnamed: 0,officeName,pincode,stateName,districtName,taluk,lat,lng
0,0,Anand Vihar S.O,110092,DELHI,East Delhi,,28.6525373,77.3124158
1,1,Azad Nagar S.O (East Delhi),110051,DELHI,East Delhi,,28.6264682,77.2450109
2,2,Babarpur S.O (North East Delhi),110032,DELHI,North East Delhi,,28.6876088,77.2821608
3,3,Badarpur Khadar B.O,110090,DELHI,East Delhi,East Delhi,28.5039606,77.3018279
4,4,Balbir Nagar S.O,110032,DELHI,East Delhi,,28.6825116,77.2848629
5,5,Bhajan Pura S.O,110053,DELHI,North East Delhi,,0,0
6,6,Bhola Nath Nagar S.O,110032,DELHI,East Delhi,,29.0084906,77.5712556
7,7,Brahampuri S.O,110053,DELHI,East Delhi,,28.6464306,77.1859372
8,8,Chilla B.O,110091,DELHI,East Delhi,,28.5959804,77.3026459
9,9,Dayalpur B.O,110094,DELHI,North East Delhi,,28.7203701,77.271705
10,10,Dilshad Garden S.O,110095,DELHI,East Delhi,,0,0
11,11,Distt. Court (KKD) S.O,110032,DELHI,East Delhi,,0,0
12,12,G.T.B. Hospital S.O,110095,DELHI,East Delhi,,28.6896464,77.3119837
13,13,Gandhi Nagar Bazar S.O,110031,DELHI,East Delhi,,28.6583092,77.2226987
14,14,Gandhi Nagar S.O (East Delhi),110031,DELHI,East Delhi,,28.6583092,77.2226987
15,15,Garhi Mandu B.O,110053,DELHI,East Delhi,East Delhi,28.5570462,77.2512917
16,16,Geeta Colony S.O,110031,DELHI,East Delhi,,28.6361807,77.1774166
17,17,Ghazipur B.O,110096,DELHI,East Delhi,,28.6286586,77.3207839
18,18,Ghonda B.O,110053,DELHI,East Delhi,,28.6903201,77.2656588
19,19,Gokal Puri S.O,110094,DELHI,East Delhi,,0,0
20,20,Goverdhan Bihari Colony S.O,110032,DELHI,East Delhi,,0,0
21,21,Govind Pura S.O,110051,DELHI,East Delhi,,28.6413034,77.2441243
22,22,Harsh Vihar S.O,110093,DELHI,East Delhi,,0,0
23,23,Himmatpuri S.O,110091,DELHI,East Delhi,,28.6036798,77.304441
24,24,IP Extension S.O,110092,DELHI,East Delhi,,28.6317961,77.3046592
25,25,Jafrabad S.O (East Delhi),110053,DELHI,East Delhi,,28.6841295,77.2721327
26,26,Jagjit Nagar S.O,110053,DELHI,East Delhi,,0,0
27,27,Jhilmil H.O,110095,DELHI,East Delhi,,28.6757994,77.3124192
28,28,Jhilmil Tahirpur B.O,110095,DELHI,East Delhi,,28.6757994,77.3124192
29,29,Johripur B.O,110094,DELHI,East Delhi,,28.7174577,77.2851341
30,30,Kailash Nagar S.O,110031,DELHI,East Delhi,,28.6295369,77.2223563
31,31,Kalyanpuri S.O,110091,DELHI,East Delhi,,28.6179505,77.3142212
32,32,Kalyanvas S.O,110091,DELHI,East Delhi,,28.6201344,77.3116215
33,33,Karawal Nagar S.O,110090,DELHI,East Delhi,,28.7129965,77.2629171
34,34,Khazuri Khas B.O,110094,DELHI,East Delhi,,0,0
35,35,Krishna Nagar H.O,110051,DELHI,East Delhi,,28.6584248,77.2259243
36,36,Laxmi Nagar S.O (East Delhi),110092,DELHI,East Delhi,,28.6216087,77.347696
37,37,Loni Road Housing Complex S.O,110093,DELHI,East Delhi,,28.7005631,77.2951955
38,38,Loni Road S.O,110032,DELHI,East Delhi,,28.7005631,77.2951955
39,39,Man Sarovar Park S.O,110032,DELHI,East Delhi,,28.606873,77.2244281
40,40,Mandawali Fazalpur S.O,110092,DELHI,East Delhi,,28.6248312,77.2924995
41,41,Mandoli Saboli B.O,110093,DELHI,North East Delhi,,28.7041396,77.313921
42,42,Maujpur S.O,110053,DELHI,East Delhi,,28.6906285,77.2764329
43,43,Mayur Vihar Ph-I S.O,110091,DELHI,East Delhi,,28.6117709,77.3250696
44,44,Mayur Vihar Ph-III S.O,110096,DELHI,East Delhi,,28.6117709,77.3250696
45,45,"Nand Nagri ""A"" S.O",110093,DELHI,East Delhi,,0,0
46,46,"Nand Nagri ""C"" S.O",110093,DELHI,East Delhi,,0,0
47,47,New Seemapuri S.O,110095,DELHI,East Delhi,,28.6139391,77.2090212
48,48,New Usmanpur B.O,110053,DELHI,East Delhi,,28.6139391,77.2090212
49,49,Nirman Vihar S.O,110092,DELHI,East Delhi,,28.6350273,77.2872061
50,50,Old Seemapuri S.O,110095,DELHI,East Delhi,,28.6609677,77.2276704
51,51,Patparganj S.O,110091,DELHI,East Delhi,,28.6199877,77.292355
52,52,Raghubar Pura S.O,110031,DELHI,East Delhi,,28.7153355,77.2679579
53,53,Rajgarh Colony S.O,110031,DELHI,East Delhi,,28.6618554,77.2766517
54,54,Ram Nagar S.O (East Delhi),110051,DELHI,East Delhi,,28.6759798,77.2276948
55,55,Rohtash Nagar S.O,110032,DELHI,East Delhi,,0,0
56,56,Sabhapur B.O,110094,DELHI,North West Delhi,Delhi North East,28.7471106,77.24886
57,57,Seelampur S.O,110053,DELHI,East Delhi,,28.6698997,77.2666465
58,58,Shahdara Mandi S.O,110032,DELHI,East Delhi,,28.6888393,77.2674795
59,59,Shahdara S.O,110032,DELHI,East Delhi,,28.6888393,77.2674795
60,60,Shaheed Bhagat Singh Colony S.O,110090,DELHI,North East Delhi,,28.6238206,77.0597441
61,61,Shakarpur S.O,110092,DELHI,East Delhi,,28.6279488,77.2786205
62,62,Shastri Nagar S.O (East Delhi),110031,DELHI,East Delhi,,28.6749206,77.1794302
63,63,Shivaji Park S.O (East Delhi),110032,DELHI,East Delhi,,28.6934234,77.2687307
64,64,Shriram Colony Rajeev Nagar S.O,110090,DELHI,North East Delhi,,28.6810543,77.2124288
65,65,Sonia Vihar S.O,110090,DELHI,East Delhi,,28.7123456,77.2536817
66,66,Sunder Nagari S.O,110093,DELHI,North East Delhi,,28.3848234,76.9697986
67,67,Surajmal Vihar S.O,110092,DELHI,East Delhi,,0,0
68,68,Telewara S.O,110032,DELHI,East Delhi,,0,0
69,69,Trilok Puri S.O,110091,DELHI,East Delhi,,0,0
70,70,V.K. Nagar S.O,110095,DELHI,East Delhi,,0,0
71,71,Vasundhra Enclave S.O,110096,DELHI,East Delhi,,28.6636281,77.3697672
72,72,Vishwas Nagar S.O,110032,DELHI,East Delhi,,28.6648134,77.2939641
73,73,Vivek Vihar S.O,110095,DELHI,East Delhi,,28.6250593,77.277365
74,74,Yamuna Vihar S.O,110053,DELHI,East Delhi,,28.0489936,79.4897429
75,75,Yozna Vihar S.O,110092,DELHI,East Delhi,,0,0
76,76,Delhi G.P.O. ,110006,DELHI,North Delhi,Delhi,28.6139391,77.2090212
77,77,Adrash Nagar S.O,110033,DELHI,North West Delhi,Delhi,28.5908514,77.0807075
78,78,Alipur S.O,110036,DELHI,North West Delhi,Delhi,28.7972263,77.1331363
79,79,Anandvas Shakurpur S.O,110034,DELHI,North West Delhi,Delhi,0,0
80,80,Aruna Nagar S.O,110054,DELHI,North Delhi,North,0,0
81,81,Ashok Vihar H.O,110052,DELHI,North West Delhi,Delhi,28.6654387,77.2618405
82,82,Auchandi B.O,110039,DELHI,North West Delhi,Delhi,28.8227365,76.9926789
83,83,Avantika S.O,110085,DELHI,North Delhi,,28.7035387,77.0986376
84,84,Badli S.O (North West Delhi),110042,DELHI,North West Delhi,Delhi,28.7324287,77.1442022
85,85,Bakhtawar Pur B.O,110036,DELHI,North West Delhi,Delhi,0,0
86,86,Bakoli B.O,110036,DELHI,North West Delhi,Delhi,28.8141928,77.1456402
87,87,Bankner B.O,110040,DELHI,North West Delhi,Delhi,28.8444556,77.0737149
88,88,Baratooti S.O,110006,DELHI,North Delhi,,0,0
89,89,Barwala B.O,110039,DELHI,North West Delhi,Delhi,28.7618856,77.0636419
90,90,Bawana S.O,110039,DELHI,North West Delhi,Delhi,28.8054651,77.0463008
91,91,Begumpur B.O,110086,DELHI,North West Delhi,Delhi,28.7227207,77.0626793
92,92,Bhalaswa B.O,110033,DELHI,North West Delhi,Delhi,0,0
93,93,Bhorgarh B.O,110040,DELHI,North West Delhi,Delhi,28.8277124,77.0860672
94,94,Budh Vihar B.O,110086,DELHI,North West Delhi,Delhi,28.6933235,77.2808178
95,95,Burari S.O,110084,DELHI,North Delhi,Delhi,28.7535212,77.1948241
96,96,C.C.I. S.O,110007,DELHI,North Delhi,Delhi,0,0
97,97,Chand Pur B.O,110081,DELHI,North West Delhi,Delhi,28.5734158,77.221269
98,98,Chandni Chowk S.O,110006,DELHI,North Delhi,Delhi,0,0
99,99,Chawri Bazar S.O,110006,DELHI,North Delhi,Delhi,0,0
100,100,Civil Lines S.O (North Delhi),110054,DELHI,North Delhi,Delhi,29.1314364,77.0166022
101,101,Dareeba S.O,110006,DELHI,North Delhi,Delhi,0,0
102,102,Daryapur Kalan B.O,110039,DELHI,North West Delhi,Delhi,28.8141109,77.0118246
103,103,Delhi Engg. College S.O,110042,DELHI,North West Delhi,Delhi,28.6139391,77.2090212
104,104,Delhi Sadar Bazar S.O,110006,DELHI,North Delhi,Delhi,28.6139391,77.2090212
105,105,Delhi University S.O,110007,DELHI,North Delhi,Delhi,28.6139391,77.2090212
106,106,District Courts S.O (North Delhi),110054,DELHI,North Delhi,Delhi,28.7040592,77.1024902
107,107,Dr.Mukerjee Nagar S.O,110009,DELHI,North West Delhi,,0,0
108,108,G.T.B.Nagar S.O,110009,DELHI,North West Delhi,Delhi,28.6966531,77.2057554
109,109,Ganeshpura S.O,110035,DELHI,North West Delhi,Delhi,28.6775654,77.1621769
110,110,Gheora B.O,110081,DELHI,North West Delhi,Delhi,0,0
111,111,Ghoga B.O,110039,DELHI,North West Delhi,Delhi,28.8300091,77.0471403
112,112,Gujranwala Colony S.O,110009,DELHI,North West Delhi,Delhi,0,0
113,113,Gulabi Bagh S.O,110007,DELHI,North Delhi,Delhi,0,0
114,114,H.S.Sangh S.O,110009,DELHI,North West Delhi,Delhi,0,0
115,115,Haiderpur S.O,110088,DELHI,North West Delhi,Delhi,28.7224969,77.1446978
116,116,Hareveli B.O,110039,DELHI,North West Delhi,Delhi,0,0
117,117,Hiranki B.O,110036,DELHI,North West Delhi,Delhi,28.7988215,77.1793661
118,118,Holambi Kalan B.O,110082,DELHI,North West Delhi,Delhi,28.8049762,77.0970628
119,119,Jagatpur B.O,110084,DELHI,North Delhi,Delhi,28.724374,77.217429
120,120,Jahangir Puri A Block S.O,110033,DELHI,North West Delhi,Delhi,28.6383037,77.225773
121,121,Jahangir Puri D Block S.O,110033,DELHI,North West Delhi,Delhi,28.6383037,77.225773
122,122,Jahangir Puri H Block S.O,110033,DELHI,North West Delhi,Delhi,28.6383037,77.225773
123,123,Jat Khore B.O,110039,DELHI,North West Delhi,Delhi,28.1167956,77.1263999
124,124,Jaunti B.O,110081,DELHI,North West Delhi,Delhi,28.7491802,76.9688179
125,125,Jawahar Nagar S.O (North Delhi),110007,DELHI,North Delhi,,0,0
126,126,Jharoda Majraa B.O,110084,DELHI,North Delhi,Delhi,28.7296284,77.2045867
127,127,Kadipur B.O,110036,DELHI,North West Delhi,Delhi,28.7735014,77.1617953
128,128,Kamla Nagar S.O (North Delhi),110007,DELHI,North Delhi,Delhi,28.5991046,77.4156889
129,129,Kanjhawla S.O,110081,DELHI,North West Delhi,Delhi,28.7347285,77.0041762
130,130,Kanya Gurukul B.O,110040,DELHI,North West Delhi,Delhi,0,0
131,131,Karala B.O,110081,DELHI,North West Delhi,Delhi,28.731552,77.0319832
132,132,Katewara B.O,110039,DELHI,North West Delhi,Delhi,28.8038224,76.9769917
133,133,Keshav Puram S.O (North West Delhi),110035,DELHI,North West Delhi,Delhi,28.6731905,77.2801856
134,134,Khampur B.O,110036,DELHI,North West Delhi,Delhi,28.651027,77.1562196
135,135,Khera Kalan S.O,110082,DELHI,North West Delhi,Delhi,28.7696625,77.1158414
136,136,Khera Khurd B.O,110082,DELHI,North West Delhi,Delhi,28.7696625,77.1158414
137,137,Lad Pur B.O,110081,DELHI,North West Delhi,Delhi,-26.1882158,-48.529205
138,138,Lampur B.O,110040,DELHI,North West Delhi,Delhi,28.8503805,77.0647212
139,139,Majnu ka Tila B.O,110054,DELHI,North Delhi,Delhi,0,0
140,140,Majra Dabas B.O,110081,DELHI,North West Delhi,Delhi,28.7688438,77.0022145
141,141,Malka Ganj S.O,110007,DELHI,North Delhi,Delhi,0,0
142,142,Mangolpuri A Block S.O,110083,DELHI,North West Delhi,Delhi,28.6925367,77.0884237
143,143,Mangolpuri I  Block S.O,110083,DELHI,North West Delhi,Delhi,28.6925367,77.0884237
144,144,Mangolpuri N Block S.O,110083,DELHI,North West Delhi,Delhi,28.6925367,77.0884237
145,145,Mangolpuri S Block S.O,110083,DELHI,North West Delhi,,28.6925367,77.0884237
146,146,Maurya Enclave S.O,110034,DELHI,North West Delhi,Delhi,0,0
147,147,Model Town II S.O,110009,DELHI,North West Delhi,Delhi,28.7158727,77.1910738
148,148,Model Town III S.O,110009,DELHI,North West Delhi,Delhi,28.7158727,77.1910738
149,149,Mubarak Pur Dabas B.O,110081,DELHI,North West Delhi,Delhi,0,0
150,150,Mukhmelpur B.O,110036,DELHI,North West Delhi,,28.7913295,77.1621634
151,151,Mungeshpur B.O,110039,DELHI,North West Delhi,Delhi,28.8169082,76.973012
152,152,N.S.Mandi S.O,110033,DELHI,North West Delhi,Delhi,0,0
153,153,Naharpur B.O,110085,DELHI,North West Delhi,North West Delhi,28.7054923,77.1136388
154,154,Nangal Poona B.O,110036,DELHI,North West Delhi,Delhi,28.6070819,77.1147176
155,155,Nangal Thakran B.O,110039,DELHI,North West Delhi,Delhi,28.6070819,77.1147176
156,156,Narela S.O,110040,DELHI,North West Delhi,Delhi,28.8539597,77.0917838
157,157,Naya Bans B.O,110082,DELHI,North West Delhi,Delhi,29.1018708,77.2584755
158,158,New Multan Nagar B.O,110056,DELHI,North West Delhi,Delhi,28.6139391,77.2090212
159,159,Nimri S.O,110052,DELHI,North West Delhi,Delhi,0,0
160,160,Nirankari Colony S.O,110009,DELHI,North West Delhi,Delhi,28.6795309,77.1698803
161,161,Nizampur B.O,110081,DELHI,North West Delhi,Delhi,28.7167134,76.9671865
162,162,Onkar Nagar S.O,110035,DELHI,North West Delhi,Delhi,0,0
163,163,Padam Nagar S.O (North Delhi),110007,DELHI,North Delhi,Delhi,28.6490592,77.2425164
164,164,Palla B.O,110036,DELHI,North West Delhi,Delhi,28.8417509,77.1851188
165,165,Patrachar Vidyalay S.O,110054,DELHI,North Delhi,Delhi,0,0
166,166,Pehlad Pur B.O,110042,DELHI,North West Delhi,Delhi,0,0
167,167,Pooth Kalan B.O,110086,DELHI,North West Delhi,Delhi,28.694013,78.1828055
168,168,Pooth Kalan Resettlement S.O,110086,DELHI,North West Delhi,,28.694013,78.1828055
169,169,Pooth Khurd B.O,110039,DELHI,North West Delhi,Delhi,28.694013,78.1828055
170,170,Power House S.O,110035,DELHI,North West Delhi,Delhi,28.4704663,77.314466
171,171,Prashant Vihar S.O,110085,DELHI,North West Delhi,Delhi,28.7137916,77.1348215
172,172,Prem Nagar B.O,110086,DELHI,North West Delhi,Delhi,28.6643948,77.2266025
173,173,Punjab Khor B.O,110081,DELHI,North West Delhi,Delhi,30.6316166,76.3815444
174,174,Qutabagarh B.O,110039,DELHI,North West Delhi,Delhi,28.8008376,76.9605607
175,175,R.C.A.O. S.O,110007,DELHI,North Delhi,Delhi,28.6675043,77.0532747
176,176,Rampura B.O,110035,DELHI,North West Delhi,Delhi,28.6732479,77.1526506
177,177,Rana Pratap Bagh S.O,110007,DELHI,North Delhi,,28.7137937,77.1765786
178,178,Rani Bagh S.O,110034,DELHI,North West Delhi,Delhi,28.5297872,77.2130589
179,179,Rani Khera B.O,110081,DELHI,North West Delhi,Delhi,28.5297872,77.2130589
180,180,Rithala B.O,110085,DELHI,North West Delhi,Delhi,28.7208443,77.1071206
181,181,Rohini Courts S.O,110085,DELHI,North West Delhi,,28.7494716,77.0565333
182,182,Rohini sec-11 S.O,110085,DELHI,North West Delhi,Delhi,28.7494716,77.0565333
183,183,Rohini Sector 15 S.O,110089,DELHI,North West Delhi,,28.7494716,77.0565333
184,184,Rohini Sector 5 S.O,110085,DELHI,North West Delhi,Delhi,28.7494716,77.0565333
185,185,Rohini Sector-7 S.O,110085,DELHI,North West Delhi,,28.7494716,77.0565333
186,186,Roop Nagar S.O,110007,DELHI,North Delhi,Delhi,0,0
187,187,Roshan Ara Road S.O,110007,DELHI,North Delhi,Delhi,28.5972225,76.9835835
188,188,S.T. Road S.O,110006,DELHI,North Delhi,Delhi,28.6905005,77.3089224
189,189,Samai Pur S.O,110042,DELHI,North West Delhi,Delhi,0,0
190,190,Sanoth B.O B.O,110040,DELHI,North West Delhi,Delhi,28.8147375,77.0740356
191,191,Sarai Rohilla S.O,110035,DELHI,North West Delhi,Delhi,28.6592059,77.2339295
192,192,Saraswati Vihar S.O,110034,DELHI,North West Delhi,Delhi,28.6265512,77.288971
193,193,Satyawati Nagar S.O,110052,DELHI,North West Delhi,Delhi,28.68221,77.1993194
194,194,Shahbad Daulatpur B.O,110042,DELHI,North West Delhi,Delhi,27.9236016,76.8086617
195,195,Shakti Nagar S.O (North Delhi),110007,DELHI,North Delhi,Delhi,28.6781442,77.1967666
196,196,Shakur Basti Depot S.O,110056,DELHI,North West Delhi,Delhi,0,0
197,197,Shakur Pur I  Block S.O,110034,DELHI,North West Delhi,Delhi,0,0
198,198,Shakurbasti Rs S.O,110034,DELHI,North West Delhi,Delhi,28.6817707,77.1285101
199,199,Shalamar B.O,110088,DELHI,North West Delhi,Delhi,28.7241548,77.1549874
200,200,Shalimar Bagh S.O (North West Delhi),110088,DELHI,North West Delhi,Delhi,28.7164134,77.1545846
201,201,Shastri Nagar S.O (North West Delhi),110052,DELHI,North West Delhi,Delhi,28.6749206,77.1794302
202,202,Singhu B.O,110040,DELHI,North West Delhi,Delhi,28.8543318,77.1294034
203,203,Siraspur B.O,110042,DELHI,North West Delhi,Delhi,28.7619156,77.1390725
204,204,Sri Nagar Colony S.O,110034,DELHI,North West Delhi,Delhi,0,0
205,205,Sultanpuri B Block S.O,110086,DELHI,North West Delhi,Delhi,28.6979416,77.0659264
206,206,Sultanpuri C Block S.O,110086,DELHI,North West Delhi,Delhi,28.6979416,77.0659264
207,207,Sultanpuri F Block S.O,110086,DELHI,North West Delhi,Delhi,28.6979416,77.0659264
208,208,Tajpur Kalan B.O,110036,DELHI,North West Delhi,Delhi,28.4933506,77.3058772
209,209,Tikri Khurd B.O,110040,DELHI,North West Delhi,Delhi,28.4202127,77.035577
210,210,Timarpur S.O,110054,DELHI,North Delhi,Delhi,28.7003675,77.2207566
211,211,Wazir Pur III S.O,110052,DELHI,North West Delhi,Delhi,28.6418228,77.2099906
212,212,Wazirabad Village S.O,110084,DELHI,North Delhi,North,28.7336221,77.2190228
213,213,A.G.C.R. S.O,110002,DELHI,Central Delhi,New Delhi,28.653869,77.299011
214,214,A.K.Market S.O,110055,DELHI,Central Delhi,New Delhi,28.6393528,77.0740746
215,215,Ajmeri Gate Extn. S.O,110002,DELHI,Central Delhi,New Delhi,0,0
216,216,Anand Parbat Indl. Area S.O,110005,DELHI,Central Delhi,New Delhi,28.6525373,77.3124158
217,217,Anand Parbat S.O,110005,DELHI,Central Delhi,New Delhi,28.6525373,77.3124158
218,218,Bank Street S.O (Central Delhi),110005,DELHI,Central Delhi,New Delhi,28.6537539,77.1889184
219,219,Baroda House S.O,110001,DELHI,Central Delhi,New Delhi,22.3510156,73.2136743
220,220,Bengali Market S.O,110001,DELHI,Central Delhi,New Delhi,28.5979849,77.0788227
221,221,Bhagat Singh Market S.O,110001,DELHI,Central Delhi,New Delhi,28.6654594,77.1955639
222,222,Connaught Place S.O,110001,DELHI,Central Delhi,New Delhi,28.631562,77.2226341
223,223,Constitution House S.O,110001,DELHI,Central Delhi,New Delhi,0,0
224,224,Dada Ghosh Bhawan S.O,110008,DELHI,Central Delhi,New Delhi,27.4607643,76.6961305
225,225,Darya Ganj S.O,110002,DELHI,Central Delhi,New Delhi,0,0
226,226,Delhi High Court Extension Counter S.O,110003,DELHI,Central Delhi,Delhi,28.6139391,77.2090212
227,227,Delhi High Court S.O,110003,DELHI,Central Delhi,New Delhi,28.6139391,77.2090212
228,228,Desh Bandhu Gupta Road S.O,110005,DELHI,Central Delhi,New Delhi,0,0
229,229,Election Commission S.O,110001,DELHI,Central Delhi,New Delhi,0,0
230,230,Gandhi Smarak Nidhi S.O,110002,DELHI,Central Delhi,New Delhi,28.6583092,77.2226987
231,231,Guru Gobind Singh Marg S.O,110005,DELHI,Central Delhi,New Delhi,28.6501272,77.2880609
232,232,Hauz Qazi S.O,110006,DELHI,Central Delhi,Delhi,0,0
233,233,I.A.R.I. S.O,110012,DELHI,Central Delhi,New Delhi,29.702892,76.9913075
234,234,I.P.Estate S.O,110002,DELHI,Central Delhi,New Delhi,28.6202226,77.248659
235,235,Inderpuri S.O,110012,DELHI,Central Delhi,New Delhi,28.6319998,77.1450994
236,236,Indraprastha H.O,110002,DELHI,Central Delhi,New Delhi,28.6545622,77.2308955
237,237,Jama Masjid S.O,110006,DELHI,Central Delhi,Delhi,28.6515027,77.2326442
238,238,Janpath S.O,110001,DELHI,Central Delhi,New Delhi,28.6278172,77.2189594
239,239,Karol Bagh S.O,110005,DELHI,Central Delhi,New Delhi,0,0
240,240,Krishi Bhawan S.O,110001,DELHI,Central Delhi,New Delhi,0,0
241,241,Lady Harding Medical College S.O,110001,DELHI,Central Delhi,New Delhi,0,0
242,242,Master Prithvi Nath Marg S.O,110005,DELHI,Central Delhi,New Delhi,28.6303407,77.2848935
243,243,Minto Road S.O,110002,DELHI,Central Delhi,New Delhi,28.6409055,77.2258043
244,244,Multani Dhanda S.O,110055,DELHI,Central Delhi,New Delhi,0,0
245,245,National Physical Laboratory S.O,110012,DELHI,Central Delhi,New Delhi,28.5626871,77.2391656
246,246,Nirman Bhawan S.O,110011,DELHI,Central Delhi,New Delhi,28.6350273,77.2872061
247,247,North Avenue S.O,110001,DELHI,Central Delhi,New Delhi,28.7483894,77.2060241
248,248,Pahar Ganj S.O,110055,DELHI,Central Delhi,New Delhi,28.6576948,77.208372
249,249,Pandara Road S.O,110003,DELHI,Central Delhi,New Delhi,28.6059896,77.2307423
250,250,Parliament House S.O,110001,DELHI,Central Delhi,New Delhi,28.619523,77.2099257
251,251,Patel Nagar East S.O,110008,DELHI,Central Delhi,New Delhi,28.6449272,77.1765945
252,252,Patel Nagar S.O (Central Delhi),110008,DELHI,Central Delhi,New Delhi,28.6449272,77.1765945
253,253,Patel Nagar South S.O,110008,DELHI,Central Delhi,New Delhi,28.6449272,77.1765945
254,254,Patel Nagar West S.O,110008,DELHI,Central Delhi,New Delhi,28.6449272,77.1765945
255,255,Patiala House S.O,110001,DELHI,Central Delhi,New Delhi,29.3236949,76.2964224
256,256,Pragati Maidan Camp S.O,110001,DELHI,Central Delhi,New Delhi,28.7440939,77.1994425
257,257,Pragati Maidan S.O,110001,DELHI,Central Delhi,New Delhi,28.7440939,77.1994425
258,258,Rail Bhawan S.O,110001,DELHI,Central Delhi,New Delhi,26.8467088,80.9461592
259,259,Rajender Nagar S.O,110060,DELHI,Central Delhi,New Delhi,28.0504216,76.4688939
260,260,Rashtrapati Bhawan S.O,110004,DELHI,Central Delhi,New Delhi,0,0
261,261,Sansad Marg H.O,110001,DELHI,Central Delhi,New Delhi,28.6187746,77.2096521
262,262,Sansadiya Soudh S.O,110001,DELHI,Central Delhi,New Delhi,0,0
263,263,Sat Nagar S.O,110005,DELHI,Central Delhi,New Delhi,0,0
264,264,Secretariat North S.O,110001,DELHI,Central Delhi,New Delhi,0,0
265,265,Shastri Bhawan S.O,110001,DELHI,Central Delhi,New Delhi,28.6749206,77.1794302
266,266,South Avenue S.O,110011,DELHI,Central Delhi,New Delhi,28.5086497,77.2175223
267,267,Supreme Court S.O,110001,DELHI,Central Delhi,New Delhi,29.3201526,76.3333662
268,268,Swami Ram Tirth Nagar S.O,110055,DELHI,Central Delhi,New Delhi,0,0
269,269,Udyog Bhawan S.O,110011,DELHI,Central Delhi,New Delhi,28.5106418,77.0856713
270,270,Union Public Service Commission S.O,110069,DELHI,Central Delhi,New Delhi,32.4587742,-91.5025501
271,271,New Delhi G.P.O. ,110001,DELHI,New Delhi,New Delhi,28.6139391,77.2090212
272,272,Abul Fazal Enclave-I S.O,110025,DELHI,South Delhi,,0,0
273,273,Air Force Station Tugalkabad S.O,110062,DELHI,South Delhi,New Delhi,28.6216638,77.2115493
274,274,Alaknanda S.O,110019,DELHI,South Delhi,New Delhi,28.5304408,77.2505733
275,275,Ali B.O,110076,DELHI,South Delhi,New Delhi,28.5166081,77.3090827
276,276,Aliganj S.O (South Delhi),110003,DELHI,South Delhi,New Delhi,28.5762179,77.2229116
277,277,Amar Colony S.O,110024,DELHI,South Delhi,New Delhi,28.6685845,77.3250743
278,278,Andrewsganj S.O,110049,DELHI,South Delhi,New Delhi,28.5626799,77.2275823
279,279,Badarpur S.O (South Delhi),110044,DELHI,South Delhi,New Delhi,28.5039606,77.3018279
280,280,BSF Camp Tigri S.O,110062,DELHI,South Delhi,New Delhi,28.5543792,77.0062664
281,281,BTPS S.O (South Delhi),110044,DELHI,South Delhi,New Delhi,0,0
282,282,C G O Complex S.O,110003,DELHI,South Delhi,New Delhi,28.5688126,77.1603796
283,283,C R R I S.O (South Delhi),110020,DELHI,South Delhi,New Delhi,28.5688126,77.1603796
284,284,Chittranjan Park S.O,110019,DELHI,South Delhi,New Delhi,28.5384802,77.2444369
285,285,Dakshinpuri Phase-I S.O,110062,DELHI,South Delhi,New Delhi,28.5207415,77.2390784
286,286,Dakshinpuri Phase-II S.O,110062,DELHI,South Delhi,New Delhi,28.5207415,77.2390784
287,287,Dakshinpuri Phase-III S.O,110062,DELHI,South Delhi,New Delhi,28.5207415,77.2390784
288,288,Dargah Sharif S.O,110013,DELHI,South Delhi,New Delhi,28.6300149,77.1105371
289,289,Defence Colony S.O (South Delhi),110024,DELHI,South Delhi,New Delhi,28.5769521,77.2384772
290,290,Deoli B.O,110062,DELHI,South Delhi,New Delhi,28.5019207,77.2297379
291,291,"Distt. Court Complex, Saket S.O",110017,DELHI,South Delhi,,0,0
292,292,Dr. Ambedkar Nagar S.O (South Delhi),110062,DELHI,South Delhi,New Delhi,0,0
293,293,East Of Kailash Phase-I S.O,110065,DELHI,South Delhi,New Delhi,28.6195591,77.2979782
294,294,East Of Kailash S.O,110065,DELHI,South Delhi,New Delhi,28.6195591,77.2979782
295,295,F F C Okhla S.O,110020,DELHI,New Delhi,New Delhi,28.6696297,77.2518081
296,296,Gautam Nagar S.O,110049,DELHI,South Delhi,New Delhi,28.6710413,77.299802
297,297,Golf Links S.O,110003,DELHI,South Delhi,New Delhi,28.577213,77.3593705
298,298,Greater Kailash S.O,110048,DELHI,South Delhi,New Delhi,28.4342529,77.518229
299,299,Gulmohar Park S.O,110049,DELHI,South Delhi,New Delhi,28.7006192,77.2214895
300,300,Hamdard Nagar S.O,110062,DELHI,South Delhi,New Delhi,28.6522779,77.2236742
301,301,Hari Nagar Ashram S.O,110014,DELHI,South Delhi,New Delhi,28.6440703,77.2147511
302,302,Hazrat Nizamuddin S.O,110013,DELHI,South Delhi,New Delhi,28.5889199,77.2534471
303,303,Jaitpur B.O,110044,DELHI,South Delhi,New Delhi,28.5089664,77.3202814
304,304,Jaitpur S.O (South Delhi),110044,DELHI,South Delhi,,28.5089664,77.3202814
305,305,Jamia Nagar S.O,110025,DELHI,South Delhi,New Delhi,28.5609109,77.2798812
306,306,Jeevan Nagar B.O,110014,DELHI,South Delhi,New Delhi,0,0
307,307,Jungpura S.O,110014,DELHI,South Delhi,New Delhi,0,0
308,308,Kailash Colony S.O,110048,DELHI,South Delhi,New Delhi,28.6295369,77.2223563
309,309,Kalkaji H.O,110019,DELHI,South Delhi,New Delhi,28.5374198,77.2597274
310,310,Kasturba Nagar S.O (South Delhi),110003,DELHI,South Delhi,New Delhi,28.6497184,77.2365446
311,311,Khanpur S.O (South Delhi),110062,DELHI,South Delhi,New Delhi,28.5093102,77.2309277
312,312,Krishna Market S.O,110024,DELHI,South Delhi,New Delhi,28.6584248,77.2259243
313,313,Lajpat Nagar (South Delhi) S.O,110024,DELHI,South Delhi,New Delhi,28.5676955,77.2432721
314,314,Lal Kuan B.O,110044,DELHI,South Delhi,New Delhi,28.5856119,77.1487399
315,315,Lodi Road H.O,110003,DELHI,South Delhi,New Delhi,28.5907593,77.2261659
316,316,Madanpur Khadar B.O,110076,DELHI,South Delhi,New Delhi,28.716017,77.028037
317,317,Malviya Nagar S.O (South Delhi),110017,DELHI,South Delhi,New Delhi,28.5308862,77.2110873
318,318,Masjid Moth S.O,110048,DELHI,South Delhi,New Delhi,0,0
319,319,MMTC/STC Colony S.O,110017,DELHI,South Delhi,New Delhi,0,0
320,320,Molarband B.O,110044,DELHI,South Delhi,New Delhi,28.5053734,77.3116215
321,321,Nehru Nagar S.O (South Delhi),110065,DELHI,South Delhi,New Delhi,28.6655738,77.2655836
322,322,Nehru Place S.O,110019,DELHI,South Delhi,New Delhi,28.6655738,77.2655836
323,323,New Delhi South Ext-II S.O,110049,DELHI,South Delhi,New Delhi,28.6139391,77.2090212
324,324,New Friends Colony S.O,110025,DELHI,South Delhi,New Delhi,28.6139391,77.2090212
325,325,Okhla Industrial Area Phase-i S.O,110020,DELHI,South Delhi,New Delhi,28.56028,77.2913315
326,326,Okhla Industrial Estate S.O,110020,DELHI,South Delhi,New Delhi,28.56028,77.2913315
327,327,Panchsheel Enclave S.O,110017,DELHI,South Delhi,New Delhi,28.5429082,77.2143812
328,328,Pragati Vihar S.O,110003,DELHI,South Delhi,New Delhi,28.7440939,77.1994425
329,329,Pratap Market S.O,110014,DELHI,South Delhi,New Delhi,28.661328,77.2660047
330,330,Pul Pahladpur B.O,110044,DELHI,South Delhi,New Delhi,0,0
331,331,Pushp Vihar S.O,110017,DELHI,South Delhi,New Delhi,0,0
332,332,Pushpa Bhawan S.O,110062,DELHI,South Delhi,New Delhi,0,0
333,333,Sadiq Nagar S.O,110049,DELHI,South Delhi,New Delhi,28.5585597,77.2300441
334,334,Safdarjung Air Port S.O,110003,DELHI,South Delhi,New Delhi,28.5821997,77.1871655
335,335,Sahpurjat B.O,110049,DELHI,South Delhi,New Delhi,0,0
336,336,Saket S.O (South Delhi),110017,DELHI,South Delhi,New Delhi,28.5245787,77.206615
337,337,Sangam Vihar S.O,110080,DELHI,South Delhi,South Delhi,28.5700764,77.1664916
338,338,Sant Nagar S.O (South Delhi),110065,DELHI,South Delhi,New Delhi,28.7480713,77.1984854
339,339,Sarita Vihar S.O,110076,DELHI,South Delhi,New Delhi,0,0
340,340,Sarvodya Enclave S.O,110017,DELHI,South Delhi,New Delhi,28.6697793,77.1502707
341,341,South Malviya Nagar S.O,110017,DELHI,South Delhi,New Delhi,28.5086497,77.2175223
342,342,Sriniwaspuri S.O,110065,DELHI,South Delhi,New Delhi,28.56669,77.253103
343,343,Sukhdev Vihar S.O,110025,DELHI,South Delhi,New Delhi,0,0
344,344,Talimabad S.O,110062,DELHI,South Delhi,New Delhi,28.5048895,77.2534469
345,345,Tehkhand B.O,110020,DELHI,South Delhi,New Delhi,0,0
346,346,Tugalkabad B.O,110044,DELHI,South Delhi,New Delhi,28.5048843,77.2739385
347,347,Tugalkabad Railway Colony S.O,110044,DELHI,South Delhi,New Delhi,28.5048843,77.2739385
348,348,Zakir Nagar S.O,110025,DELHI,South Delhi,New Delhi,28.5662312,77.2836786
349,349,505 A B Workshop S.O,110010,DELHI,South West Delhi,,28.5760255,77.3033019
350,350,A F Palam S.O,110010,DELHI,South West Delhi,,28.668544,77.2521673
351,351,A F Rajokari S.O,110038,DELHI,South West Delhi,,28.668544,77.2521673
352,352,Anand Niketan S.O,110021,DELHI,South West Delhi,,28.6525373,77.3124158
353,353,Ansari Nagar S.O,110029,DELHI,South West Delhi,,28.644324,77.2442119
354,354,Aps Colony B.O,110010,DELHI,South West Delhi,,0,0
355,355,Arjungarh S.O,110047,DELHI,South West Delhi,,28.475239,77.1175451
356,356,Aya Nagar B.O,110047,DELHI,South West Delhi,,28.4775509,77.1295647
357,357,Bazar Road S.O,110010,DELHI,South West Delhi,,28.6639724,77.2233172
358,358,Bijwasan S.O,110061,DELHI,South West Delhi,,28.5349468,77.0557525
359,359,C.S.K.M. School B.O,110074,DELHI,South West Delhi,,0,0
360,360,C.V.D. S.O,110010,DELHI,South West Delhi,,0,0
361,361,Chanakya Puri S.O,110021,DELHI,South West Delhi,,28.6882315,77.283257
362,362,Chandanhoola B.O,110074,DELHI,South West Delhi,,0,0
363,363,Chattarpur S.O,110074,DELHI,South West Delhi,,28.4958562,77.1848254
364,364,COD S.O (South West Delhi),110010,DELHI,South West Delhi,,0,0
365,365,Delhi Cantt S.O,110010,DELHI,South West Delhi,,28.6139391,77.2090212
366,366,Dera B.O,110074,DELHI,South West Delhi,,28.433333,77.183333
367,367,Dhaula Kuan S.O,110010,DELHI,South West Delhi,,0,0
368,368,Fatehpur Beri B.O,110074,DELHI,South West Delhi,,28.4222469,77.0492504
369,369,Gadaipur B.O,110030,DELHI,South West Delhi,,28.4892931,77.1499544
370,370,Ghitorni B.O,110030,DELHI,South West Delhi,,28.4964413,77.1393872
371,371,Green Park Market S.O,110016,DELHI,South West Delhi,,28.5597033,77.203868
372,372,Gurgaon Road S.O,110037,DELHI,South West Delhi,,28.4594965,77.0266383
373,373,Hauz Khas Market S.O,110016,DELHI,South West Delhi,,0,0
374,374,Hauz Khas S.O,110016,DELHI,South West Delhi,,0,0
375,375,IGI Airport S.O,110037,DELHI,South West Delhi,,28.5468804,77.1242742
376,376,Ignou S.O,110068,DELHI,South West Delhi,,28.502608,77.198298
377,377,IT Hauz Khas S.O,110016,DELHI,South West Delhi,,28.544788,77.1898705
378,378,J.N.U. S.O,110067,DELHI,South West Delhi,,28.5479688,77.1672301
379,379,Jaunapur B.O,110047,DELHI,South West Delhi,,28.4670968,77.1525034
380,380,JNU New Campus S.O,110067,DELHI,South West Delhi,,28.5479688,77.1672301
381,381,Kapashera S.O.,110097,DELHI,South West Delhi,,28.5255897,77.0796189
382,382,Kidwai Nagar East S.O,110023,DELHI,South West Delhi,,28.6886607,77.2830372
383,383,Kidwai Nagar West S.O,110023,DELHI,South West Delhi,,28.6886607,77.2830372
384,384,Kirby Place S.O,110010,DELHI,South West Delhi,,0,0
385,385,Lado Sarai B.O,110030,DELHI,South West Delhi,,0,0
386,386,Laxmi Bai Nagar S.O,110023,DELHI,South West Delhi,,28.6216087,77.347696
387,387,Mahipalpur B.O,110037,DELHI,South West Delhi,,28.5448686,77.1281345
388,388,Maidan Garhi B.O,110068,DELHI,South West Delhi,,27.5065156,76.5981251
389,389,Malcha Marg S.O,110021,DELHI,South West Delhi,,28.6060228,77.1858995
390,390,Mandi B.O,110047,DELHI,South West Delhi,,28.4451711,77.1443973
391,391,Masood Pur B.O,110070,DELHI,South West Delhi,,0,0
392,392,Mehrauli S.O,110030,DELHI,South West Delhi,,28.5212083,77.1789831
393,393,Moti Bagh S.O,110021,DELHI,South West Delhi,,28.6559691,77.2298787
394,394,Munirka S.O,110067,DELHI,South West Delhi,,28.5532118,77.1744823
395,395,Nanak Pura S.O,110021,DELHI,South West Delhi,,28.6622069,77.2630631
396,396,Nangal Dewat B.O,110037,DELHI,South West Delhi,,28.6070819,77.1147176
397,397,Nauroji Nagar S.O,110029,DELHI,New Delhi,New Delhi,28.5659479,77.1945046
398,398,Netaji Nagar S.O (South West Delhi),110023,DELHI,South West Delhi,,28.6623539,77.2651958
399,399,NIE Campus S.O,110016,DELHI,South West Delhi,,0,0
400,400,Palam Airport S.O,110037,DELHI,South West Delhi,,28.5900637,77.0887828
401,401,Paryavaran Complex S.O,110030,DELHI,South West Delhi,,28.5150574,77.2018513
402,402,Pinto Park S.O,110010,DELHI,South West Delhi,,0,0
403,403,R K Puram (Main) S.O,110066,DELHI,South West Delhi,,-26.1882158,-48.529205
404,404,R K Puram Sect-1 S.O,110022,DELHI,South West Delhi,,-26.1882158,-48.529205
405,405,R K Puram Sect-12 S.O,110022,DELHI,South West Delhi,,-26.1882158,-48.529205
406,406,R K Puram Sect-3 S.O,110022,DELHI,South West Delhi,,-26.1882158,-48.529205
407,407,R K Puram Sect-4 S.O,110022,DELHI,South West Delhi,,-26.1882158,-48.529205
408,408,R K Puram Sect-5 S.O,110022,DELHI,South West Delhi,,-26.1882158,-48.529205
409,409,R K Puram Sect7 S.O,110022,DELHI,South West Delhi,,-26.1882158,-48.529205
410,410,R K Puram Sect-8 S.O,110022,DELHI,South West Delhi,,-26.1882158,-48.529205
411,411,R K Puram Sector - 6 Postal SB S.O,110022,DELHI,South West Delhi,,-26.1882158,-48.529205
412,412,R K Puram West S.O,110066,DELHI,South West Delhi,,-26.1882158,-48.529205
413,413,R R Hospital S.O,110010,DELHI,South West Delhi,,-26.1882158,-48.529205
414,414,Rajokari B.O,110038,DELHI,South West Delhi,,28.5169549,77.102812
415,415,Safdarjung Enclave S.O,110029,DELHI,South West Delhi,,28.5821997,77.1871655
416,416,Sanjay Colony Bhati Mines B.O,110074,DELHI,South West Delhi,South West Delhi,28.3534486,77.2973893
417,417,Sarojini Nagar H.O,110023,DELHI,South West Delhi,Delhi,28.6671809,77.4646682
418,418,Satbari B.O,110074,DELHI,South West Delhi,,28.4787481,77.1939062
419,419,Sawan Public School B.O,110074,DELHI,South West Delhi,South West Delhi,0,0
420,420,Shahbad Mohammadpur B.O,110061,DELHI,South West Delhi,,27.9236016,76.8086617
421,421,Signal Enclave S.O,110010,DELHI,South West Delhi,,29.0091861,77.6951896
422,422,South Delhi Campus S.O,110021,DELHI,South West Delhi,,28.5086497,77.2175223
423,423,Station Road S.O (South West Delhi),110010,DELHI,South West Delhi,,28.6628569,77.185494
424,424,Subroto Park S.O,110010,DELHI,South West Delhi,,0,0
425,425,Sultanpur B.O,110030,DELHI,South West Delhi,,28.4964056,77.1643337
426,426,T B Hospital S.O,110030,DELHI,South West Delhi,,28.6288549,77.0977922
427,427,Technology Bhawan S.O,110016,DELHI,South West Delhi,,0,0
428,428,Vasant Kunj Pkt-A S.O,110070,DELHI,South West Delhi,,28.5741387,77.1564549
429,429,Vasant Kunj S.O,110070,DELHI,South West Delhi,,28.5741387,77.1564549
430,430,Vasant Vihar-1 S.O,110057,DELHI,South West Delhi,,28.5741387,77.1564549
431,431,Vasant Vihar-2 S.O,110057,DELHI,South West Delhi,,28.5741387,77.1564549
432,432,Amberhai B.O,110075,DELHI,South West Delhi,New Delhi,0,0
433,433,Ashok Nagar S.O (West Delhi),110018,DELHI,West Delhi,New Delhi,28.6654387,77.2618405
434,434,Ashoka Park Extn. S.O,110026,DELHI,West Delhi,New Delhi,28.6235986,77.2123839
435,435,Badusarai B.O,110071,DELHI,South West Delhi,New Delhi,28.5295945,76.9864681
436,436,Bagdola B.O,110077,DELHI,South West Delhi,New Delhi,28.5715292,77.0729954
437,437,Bakkarwala B.O,110041,DELHI,West Delhi,New Delhi,28.6665007,77.0163715
438,438,Baprola B.O,110043,DELHI,South West Delhi,New Delhi,28.6397833,77.0080007
439,439,Barthal B.O,110077,DELHI,South West Delhi,New Delhi,29.8670349,76.8735374
440,440,Chand Nagar S.O,110018,DELHI,West Delhi,New Delhi,28.5734158,77.221269
441,441,Chaukhandi B.O,110018,DELHI,West Delhi,New Delhi,28.6472126,77.0924196
442,442,Chhawla S.O,110071,DELHI,South West Delhi,New Delhi,28.562109,77.0023039
443,443,CRPF Jharoda Kalan S.O,110072,DELHI,South West Delhi,,28.645334,77.084265
444,444,D. K. Mohan Garden S.O,110059,DELHI,West Delhi,New Delhi,28.6272895,77.1404271
445,445,D.E.S.U. Colony S.O,110058,DELHI,West Delhi,New Delhi,28.5245534,77.1785853
446,446,Dabri B.O,110045,DELHI,South West Delhi,New Delhi,28.6096751,77.0895421
447,447,Daulatpur B.O,110043,DELHI,South West Delhi,New Delhi,28.5468584,76.9597705
448,448,DC Goyla B.O,110071,DELHI,South West Delhi,South West Delhi,28.5189592,77.2080902
449,449,Delhi Industrial Area S.O,110015,DELHI,West Delhi,New Delhi,28.6139391,77.2090212
450,450,Dhansa B.O,110073,DELHI,South West Delhi,,28.5544853,76.8650289
451,451,Dhulsiras B.O,110077,DELHI,South West Delhi,New Delhi,28.5641729,77.0413344
452,452,Dichaun Kalan B.O,110043,DELHI,South West Delhi,New Delhi,0,0
453,453,Dindarpur B.O,110043,DELHI,South West Delhi,New Delhi,28.5925362,76.9938274
454,454,District Court Complex Dwarka S.O,110075,DELHI,South West Delhi,Delhi,28.7040592,77.1024902
455,455,"Distt. Court Complex, Dwarka S.O",110078,DELHI,West Delhi,,0,0
456,456,Dwarka Sec-6 S.O,110075,DELHI,South West Delhi,New Delhi,28.5921401,77.0460481
457,457,ESI S.O,110015,DELHI,West Delhi,New Delhi,28.5948267,77.3443779
458,458,Fateh Nagar S.O,110018,DELHI,West Delhi,New Delhi,28.6896469,77.2641332
459,459,Galib Pur B.O,110073,DELHI,South West Delhi,New Delhi,0,0
460,460,GGSIP University S.O,110078,DELHI,West Delhi,,0,0
461,461,Ghuman Hera B.O,110073,DELHI,South West Delhi,New Delhi,0,0
462,462,Hari Nagar BE Block S.O,110064,DELHI,West Delhi,New Delhi,28.6440703,77.2147511
463,463,Hari Nagar Dadb Block S.O,110064,DELHI,West Delhi,New Delhi,28.6440703,77.2147511
464,464,Hari Nagar S.O (West Delhi),110064,DELHI,West Delhi,New Delhi,28.6440703,77.2147511
465,465,Hastal Village B.O,110059,DELHI,West Delhi,New Delhi,28.6377129,77.0490264
466,466,Hirankudna B.O,110041,DELHI,West Delhi,New Delhi,28.6731361,76.9984049
467,467,Indira Park B.O,110045,DELHI,South West Delhi,New Delhi,28.6648505,77.2653628
468,468,Issapur B.O,110073,DELHI,South West Delhi,New Delhi,28.5763063,76.8652686
469,469,Jafarpur B.O,110073,DELHI,South West Delhi,New Delhi,28.594898,76.915381
470,470,Jail Road S.O (West Delhi),110058,DELHI,West Delhi,New Delhi,28.7019421,77.3119627
471,471,Janakpuri A-3 S.O,110058,DELHI,West Delhi,New Delhi,28.621899,77.0878385
472,472,Janakpuri B-1 S.O,110058,DELHI,West Delhi,New Delhi,28.621899,77.0878385
473,473,Janakpuri C-4 S.O,110058,DELHI,West Delhi,New Delhi,28.621899,77.0878385
474,474,Janta Market S.O,110027,DELHI,West Delhi,New Delhi,28.6629126,77.2643018
475,475,Jawala Heri B.O,110063,DELHI,West Delhi,New Delhi,0,0
476,476,Jeevan Park B.O,110059,DELHI,West Delhi,New Delhi,0,0
477,477,Jharoda Kalan B.O,110072,DELHI,South West Delhi,,28.7296284,77.2045867
478,478,Jhatikara B.O,110043,DELHI,South West Delhi,New Delhi,28.5209051,76.9640111
479,479,Jwala Puri S.O,110087,DELHI,West Delhi,New Delhi,28.5007008,77.0774958
480,480,Kair B.O,110028,DELHI,South West Delhi,New Delhi,28.6235469,76.918015
481,481,Kakrola B.O,110078,DELHI,South West Delhi,New Delhi,28.5984354,77.0220207
482,482,Kangan Heri B.O,110071,DELHI,South West Delhi,New Delhi,0,0
483,483,Karam Pura S.O,110015,DELHI,West Delhi,New Delhi,28.6811661,77.1343364
484,484,Khaira B.O,110028,DELHI,South West Delhi,New Delhi,28.5968675,76.9714641
485,485,Khera Dabur B.O,110073,DELHI,South West Delhi,New Delhi,28.7696625,77.1158414
486,486,Khyala Phase -  I S.O,110018,DELHI,West Delhi,New Delhi,28.6563648,77.0981743
487,487,Khyala Phase - II S.O,110018,DELHI,West Delhi,New Delhi,28.6563648,77.0981743
488,488,L. M. Nagar Indl. Area S.O,110015,DELHI,West Delhi,New Delhi,28.6051859,76.9885176
489,489,M.B.S. Nagar S.O,110018,DELHI,West Delhi,New Delhi,0,0
490,490,Madipur Slum Quarter S.O,110063,DELHI,West Delhi,New Delhi,28.6721246,77.1204713
491,491,Madipur Village S.O,110063,DELHI,West Delhi,New Delhi,28.6721246,77.1204713
492,492,Mahabir Nagar S.O,110018,DELHI,West Delhi,New Delhi,0,0
493,493,Malik Pur B.O,110073,DELHI,South West Delhi,New Delhi,0,0
494,494,Mansarover Garden S.O,110015,DELHI,West Delhi,New Delhi,0,0
495,495,Matiala B.O,110059,DELHI,West Delhi,New Delhi,28.6094086,77.054325
496,496,Maya Puri S.O,110064,DELHI,South West Delhi,New Delhi,28.6429313,77.067823
497,497,Mayapuri Shopping Centre S.O,110064,DELHI,South West Delhi,New Delhi,28.6293651,77.1266912
498,498,Mitraon B.O,110043,DELHI,South West Delhi,New Delhi,28.6056141,76.944141
499,499,Mundela Kalan B.O,110073,DELHI,South West Delhi,New Delhi,0,0
500,500,Mundka B.O,110041,DELHI,West Delhi,New Delhi,28.6823144,77.034937
501,501,N.I.Area S.O,110015,DELHI,West Delhi,New Delhi,0,0
502,502,N.S.I.T. Dwarka S.O,110078,DELHI,South West Delhi,New Delhi,28.6075337,77.0349632
503,503,Najafgarh S.O,110043,DELHI,South West Delhi,New Delhi,28.6059771,76.9912041
504,504,Nangal Raya S.O,110046,DELHI,South West Delhi,New Delhi,28.6070819,77.1147176
505,505,Nangloi - II B.O,110041,DELHI,West Delhi,New Delhi,28.6841206,77.0632942
506,506,Nangloi - III S.O,110041,DELHI,West Delhi,New Delhi,28.6841206,77.0632942
507,507,Nangloi S.O,110041,DELHI,West Delhi,New Delhi,28.6841206,77.0632942
508,508,Naraina Industrial Estate H.O,110028,DELHI,South West Delhi,New Delhi,28.6321415,77.1388522
509,509,Naraina Village S.O,110028,DELHI,South West Delhi,New Delhi,28.6321415,77.1388522
510,510,Nasirpur B.O,110045,DELHI,South West Delhi,New Delhi,28.5997845,77.0913021
511,511,Nilothi B.O,110041,DELHI,West Delhi,New Delhi,28.6511815,77.0593246
512,512,Palam Extn (Harijan Basti) S.O,110077,DELHI,West Delhi,,28.5900637,77.0887828
513,513,Palam Village S.O,110045,DELHI,South West Delhi,New Delhi,28.5900637,77.0887828
514,514,Pandwala Kalan B.O,110043,DELHI,South West Delhi,New Delhi,28.565722,76.963067
515,515,Papravat B.O,110043,DELHI,South West Delhi,New Delhi,28.5803203,76.9787076
516,516,Paschim Vihar B Block S.O,110063,DELHI,West Delhi,New Delhi,28.6733647,77.1096601
517,517,Paschim Vihar S.O,110063,DELHI,West Delhi,New Delhi,28.6733647,77.1096601
518,518,Peeragarhi B.O,110063,DELHI,West Delhi,New Delhi,28.679745,77.0926894
519,519,Punjabi Bagh S.O,110026,DELHI,West Delhi,,28.5748672,77.2256784
520,520,Punjabi Bagh Sec - III S.O,110026,DELHI,West Delhi,New Delhi,28.5748672,77.2256784
521,521,Quazipur B.O,110073,DELHI,South West Delhi,New Delhi,28.6286586,77.3207839
522,522,Raj Nagar - II S.O,110077,DELHI,South West Delhi,New Delhi,28.6804923,77.2148371
523,523,Rajouri Garden J-6 S.O,110027,DELHI,West Delhi,New Delhi,28.6417559,77.1175945
524,524,Rajouri Market S.O,110027,DELHI,West Delhi,New Delhi,28.6417559,77.1175945
525,525,Ramesh Nagar H.O,110015,DELHI,West Delhi,New Delhi,28.6348647,77.2740401
526,526,Ranhola B.O,110041,DELHI,West Delhi,New Delhi,28.6561285,77.0406828
527,527,Raota B.O,110073,DELHI,South West Delhi,New Delhi,28.5237806,76.9022654
528,528,Rewla Khanpur B.O,110043,DELHI,South West Delhi,New Delhi,24.6348014,81.567869
529,529,Sagarpur S.O,110046,DELHI,South West Delhi,New Delhi,28.6041009,77.0976165
530,530,Shivaji Park S.O (West Delhi),110026,DELHI,West Delhi,New Delhi,28.6934234,77.2687307
531,531,Subhash Nagar S.O (West Delhi),110027,DELHI,West Delhi,New Delhi,28.6618857,77.2621906
532,532,Subhash Nagar West S.O,110027,DELHI,West Delhi,New Delhi,28.6618857,77.2621906
533,533,Sunder Vihar S.O,110087,DELHI,West Delhi,New Delhi,28.3848234,76.9697986
534,534,Surehra B.O,110043,DELHI,South West Delhi,New Delhi,0,0
535,535,Tagore Garden S.O,110027,DELHI,West Delhi,New Delhi,28.6398736,77.2276052
536,536,Tikri Kalan B.O,110041,DELHI,West Delhi,New Delhi,28.4202127,77.035577
537,537,Tilak Nagar East S.O,110018,DELHI,West Delhi,New Delhi,28.6629796,77.2293744
538,538,Tilak Nagar S.O (West Delhi),110018,DELHI,West Delhi,New Delhi,28.6629796,77.2293744
539,539,Tilangpur Kotla B.O,110043,DELHI,South West Delhi,New Delhi,0,0
540,540,Ujwa S.O,110073,DELHI,South West Delhi,New Delhi,28.5626845,76.9153281
541,541,Uttam Nagar S.O,110059,DELHI,West Delhi,New Delhi,28.6190347,77.0640016
542,542,Vikas Puri S.O,110018,DELHI,West Delhi,New Delhi,28.6309157,77.2725953
543,543,Vishnu Garden S.O,110018,DELHI,West Delhi,New Delhi,28.6527759,77.1873443
544,544,Zakhira S.O,110015,DELHI,West Delhi,New Delhi,28.6665152,77.1664905
